{
    "links": {
        "self": "http://www.neowsapp.com/rest/v1/neo/3745509?api_key=iIulBulltgU6a56xZRHN4H3l9WmuAYTsLGpBGhQ2"
    },
    "id": "3745509",
    "neo_reference_id": "3745509",
    "name": "(2016 EW27)",
    "designation": "2016 EW27",
    "nasa_jpl_url": "http://ssd.jpl.nasa.gov/sbdb.cgi?sstr=3745509",
    "absolute_magnitude_h": 22.2,
    "estimated_diameter": {
        "kilometers": {
            "estimated_diameter_min": 0.096506147,
            "estimated_diameter_max": 0.2157943048
        },
        "meters": {
            "estimated_diameter_min": 96.5061469579,
            "estimated_diameter_max": 215.7943048444
        },
        "miles": {
            "estimated_diameter_min": 0.059966121,
            "estimated_diameter_max": 0.134088323
        },
        "feet": {
            "estimated_diameter_min": 316.6212271853,
            "estimated_diameter_max": 707.9865871058
        }
    },
    "is_potentially_hazardous_asteroid": false,
    "close_approach_data": [
        {
            "close_approach_date": "2016-02-16",
            "close_approach_date_full": "2016-Feb-16 14:10",
            "epoch_date_close_approach": 1455631800000,
            "relative_velocity": {
                "kilometers_per_second": "16.1576315944",
                "kilometers_per_hour": "58167.4737399185",
                "miles_per_hour": "36143.0061135621"
            },
            "miss_distance": {
                "astronomical": "0.3831887105",
                "lunar": "149.0604083845",
                "kilometers": "57324214.898846635",
                "miles": "35619615.434628163"
            },
            "orbiting_body": "Earth"
        }
    ],
    "orbital_data": {
        "orbit_id": "4",
        "orbit_determination_date": "2017-04-06 08:27:48",
        "first_observation_date": "2016-03-02",
        "last_observation_date": "2016-03-17",
        "data_arc_in_days": 15,
        "observations_used": 27,
        "orbit_uncertainty": "8",
        "minimum_orbit_intersection": ".362242",
        "jupiter_tisserand_invariant": "3.850",
        "epoch_osculation": "2457451.5",
        "eccentricity": ".3348725130696487",
        "semi_major_axis": "1.788212681985855",
        "inclination": "31.6672438420919",
        "ascending_node_longitude": "158.4861528250273",
        "orbital_period": "873.4281457597647",
        "perihelion_distance": "1.189389407266235",
        "perihelion_argument": "293.2818781167322",
        "aphelion_distance": "2.387035956705474",
        "perihelion_time": "2457362.381285549921",
        "mean_anomaly": "36.73197086420977",
        "mean_motion": ".4121689938064093",
        "equinox": "J2000",
        "orbit_class": {
            "orbit_class_type": "AMO",
            "orbit_class_description": "Near-Earth asteroid orbits similar to that of 1221 Amor",
            "orbit_class_range": "1.017 AU < q (perihelion) < 1.3 AU"
        }
    },
    "is_sentry_object": false
}